[{"OBJECT_NAME":"COSMOS 2503","OBJECT_ID":"2015-009A","EPOCH":"2026-03-09T16:42:37.703808","MEAN_MOTION":15.06275973,"ECCENTRICITY":0.00153206,"INCLINATION":97.8437,"RA_OF_ASC_NODE":123.7175,"ARG_OF_PERICENTER":225.745,"MEAN_ANOMALY":134.252,"EPHEMERIS_TYPE":0,"CLASSIFICATION_TYPE":"U","NORAD_CAT_ID":40420,"ELEMENT_SET_NO":999,"REV_AT_EPOCH":60395,"BSTAR":0.00019589832,"MEAN_MOTION_DOT":2.817e-5,"MEAN_MOTION_DDOT":0},{"OBJECT_NAME":"STARLINK-35190","OBJECT_ID":"2025-211M","EPOCH":"2026-03-09T16:40:11.055360","MEAN_MOTION":15.0565309,"ECCENTRICITY":0.00011123,"INCLINATION":97.6022,"RA_OF_ASC_NODE":114.087,"ARG_OF_PERICENTER":95.7198,"MEAN_ANOMALY":264.4156,"EPHEMERIS_TYPE":0,"CLASSIFICATION_TYPE":"U","NORAD_CAT_ID":65663,"ELEMENT_SET_NO":999,"REV_AT_EPOCH":2704,"BSTAR":0.00021777848,"MEAN_MOTION_DOT":3.083e-5,"MEAN_MOTION_DDOT":0}]
