COSMOS 2503             
1 40420U 15009A   26068.69626972  .00002817  00000+0  19590-3 0  9998
2 40420  97.8437 123.7175 0015321 225.7450 134.2520 15.06275973603958
STARLINK-35190          
1 65663U 25211M   26068.69457240  .00003083  00000+0  21778-3 0  9997
2 65663  97.6022 114.0870 0001112  95.7198 264.4156 15.05653090 27044
